ORBCOMM FM05            
1 25117U 97084F   25287.04031497  .00002009  00000+0  59419-3 0  9997
2 25117  45.0129 157.2381 0002648  79.1753 280.9397 14.46367948457813
ORBCOMM FM06            
1 25118U 97084G   25286.95430330  .00002091  00000+0  61500-3 0  9991
2 25118  45.0123 157.2520 0001636  68.5296 305.8489 14.46524277458723
ORBCOMM FM07            
1 25119U 97084H   25286.96457897  .00002091  00000+0  61477-3 0  9993
2 25119  45.0116 157.9621 0003485  78.8107 281.3136 14.46540388458711
ORBCOMM FM03            
1 25158U 98007B   25287.15080298  .00001282  00000+0  49257-3 0  9994
2 25158 107.9631  20.0236 0042886  38.9806 321.4413 14.34795953441103
ORBCOMM FM04            
1 25159U 98007C   25287.18437649  .00001396  00000+0  53095-3 0  9995
2 25159 107.9620  23.3925 0038715  35.9210 324.4522 14.35040707441290
ORBCOMM FM17            
1 25413U 98046A   25287.08261383  .00001307  00000+0  50044-3 0  9993
2 25413  44.9948  56.3845 0002760 118.5564 241.5561 14.35344075420254
ORBCOMM FM18            
1 25414U 98046B   25287.16183133  .00001406  00000+0  49803-3 0  9990
2 25414  44.9938 330.1988 0005054 190.9953 169.0786 14.38899248421388
ORBCOMM FM19            
1 25415U 98046C   25287.20204941  .00001628  00000+0  57157-3 0  9994
2 25415  44.9952 332.1915 0003837 194.5524 208.6828 14.38717350421344
